start=new Date('2022-09-23T00:00:00.000Z').valueOf();
sats=[{"INCLINATION":"97.6553","REV_AT_EPOCH":"130","ELEMENT_SET_NO":"999","OBJECT_TYPE":"PAYLOAD","TLE_LINE2":"2 53506  97.6553  25.7864 0002196  64.7931  87.3247 15.10522855  1305","MEAN_MOTION_DDOT":"0.0000000000000","OBJECT_NAME":"STARLINK-4437","MEAN_MOTION":"15.10522855","TIME_SYSTEM":"UTC","RCS_SIZE":"LARGE","CLASSIFICATION_TYPE":"U","LAUNCH_DATE":"2022-08-12","MEAN_ELEMENT_THEORY":"SGP4","SEMIMAJOR_AXIS":"6912.741","EPHEMERIS_TYPE":"0","CENTER_NAME":"EARTH","MEAN_ANOMALY":"87.3247","PERIOD":"95.331","DECAY_DATE":null,"TLE_LINE1":"1 53506U 22099AT  22265.91667824 -.01268106  00000-0 -84336-1 0  9992","SITE":"AFWTR","APOAPSIS":"536.124","REF_FRAME":"TEME","RA_OF_ASC_NODE":"25.7864","MEAN_MOTION_DOT":"-0.01268106","OBJECT_ID":"2022-099AT","ECCENTRICITY":"0.00021960","NORAD_CAT_ID":"53506","FILE":"3580594","GP_ID":"213262951","EPOCH":"2022-09-22T22:00:00.999936","BSTAR":"-0.08433600000000","ARG_OF_PERICENTER":"64.7931","COUNTRY_CODE":"US","PERIAPSIS":"533.088"},{"TLE_LINE2":"2 53507  97.6552  25.7929 0002167  62.9193 121.7204 15.11054263  1305","OBJECT_NAME":"STARLINK-4444","MEAN_MOTION_DDOT":"0.0000000000000","OBJECT_TYPE":"PAYLOAD","ELEMENT_SET_NO":"999","REV_AT_EPOCH":"130","INCLINATION":"97.6552","TIME_SYSTEM":"UTC","MEAN_MOTION":"15.11054263","LAUNCH_DATE":"2022-08-12","RCS_SIZE":"LARGE","CLASSIFICATION_TYPE":"U","EPHEMERIS_TYPE":"0","SEMIMAJOR_AXIS":"6911.121","MEAN_ELEMENT_THEORY":"SGP4","SITE":"AFWTR","TLE_LINE1":"1 53507U 22099AU  22265.91667824 -.01265069  00000-0 -82885-1 0  9995","DECAY_DATE":null,"PERIOD":"95.298","CENTER_NAME":"EARTH","MEAN_ANOMALY":"121.7204","MEAN_MOTION_DOT":"-0.01265069","OBJECT_ID":"2022-099AU","RA_OF_ASC_NODE":"25.7929","REF_FRAME":"TEME","APOAPSIS":"534.483","EPOCH":"2022-09-22T22:00:00.999936","GP_ID":"213262786","FILE":"3580594","NORAD_CAT_ID":"53507","ECCENTRICITY":"0.00021670","PERIAPSIS":"531.488","COUNTRY_CODE":"US","ARG_OF_PERICENTER":"62.9193","BSTAR":"-0.08288500000000"},{"CLASSIFICATION_TYPE":"U","RCS_SIZE":"LARGE","LAUNCH_DATE":"2022-08-12","MEAN_ELEMENT_THEORY":"SGP4","SEMIMAJOR_AXIS":"6911.932","EPHEMERIS_TYPE":"0","TLE_LINE2":"2 53508  97.6553  25.7925 0002172  62.4458 104.7951 15.10788278  1307","MEAN_MOTION_DDOT":"0.0000000000000","OBJECT_NAME":"STARLINK-4443","INCLINATION":"97.6553","REV_AT_EPOCH":"130","ELEMENT_SET_NO":"999","OBJECT_TYPE":"PAYLOAD","MEAN_MOTION":"15.10788278","TIME_SYSTEM":"UTC","EPOCH":"2022-09-22T22:00:00.999936","GP_ID":"213263108","ECCENTRICITY":"0.00021720","NORAD_CAT_ID":"53508","FILE":"3580594","ARG_OF_PERICENTER":"62.4458","COUNTRY_CODE":"US","PERIAPSIS":"532.295","BSTAR":"-0.08499200000000","TLE_LINE1":"1 53508U 22099AV  22265.91667824 -.01302549  00000-0 -84992-1 0  9992","SITE":"AFWTR","CENTER_NAME":"EARTH","MEAN_ANOMALY":"104.7951","PERIOD":"95.314","DECAY_DATE":null,"RA_OF_ASC_NODE":"25.7925","MEAN_MOTION_DOT":"-0.01302549","OBJECT_ID":"2022-099AV","APOAPSIS":"535.298","REF_FRAME":"TEME"},{"MEAN_MOTION":"15.11233235","TIME_SYSTEM":"UTC","OBJECT_NAME":"STARLINK-4402","TLE_LINE2":"2 53509  97.6556  25.7910 0002383  53.0812 144.8123 15.11233235  1304","MEAN_MOTION_DDOT":"0.0000000000000","INCLINATION":"97.6556","REV_AT_EPOCH":"130","ELEMENT_SET_NO":"999","OBJECT_TYPE":"PAYLOAD","MEAN_ELEMENT_THEORY":"SGP4","SEMIMAJOR_AXIS":"6910.575","EPHEMERIS_TYPE":"0","RCS_SIZE":"LARGE","CLASSIFICATION_TYPE":"U","LAUNCH_DATE":"2022-08-12","RA_OF_ASC_NODE":"25.7910","OBJECT_ID":"2022-099AW","MEAN_MOTION_DOT":"-0.01224531","APOAPSIS":"534.087","REF_FRAME":"TEME","TLE_LINE1":"1 53509U 22099AW  22265.91667824 -.01224531  00000-0 -79592-1 0  9997","SITE":"AFWTR","CENTER_NAME":"EARTH","MEAN_ANOMALY":"144.8123","PERIOD":"95.286","DECAY_DATE":null,"ARG_OF_PERICENTER":"53.0812","COUNTRY_CODE":"US","PERIAPSIS":"530.793","BSTAR":"-0.07959200000000","EPOCH":"2022-09-22T22:00:00.999936","GP_ID":"213262630","ECCENTRICITY":"0.00023830","NORAD_CAT_ID":"53509","FILE":"3580594"},{"ELEMENT_SET_NO":"999","OBJECT_TYPE":"PAYLOAD","INCLINATION":"97.6553","REV_AT_EPOCH":"130","MEAN_MOTION_DDOT":"0.0000000000000","TLE_LINE2":"2 53510  97.6553  25.7901 0002115  66.9097 119.8789 15.11076295  1305","OBJECT_NAME":"STARLINK-4441","MEAN_MOTION":"15.11076295","TIME_SYSTEM":"UTC","RCS_SIZE":"LARGE","CLASSIFICATION_TYPE":"U","LAUNCH_DATE":"2022-08-12","EPHEMERIS_TYPE":"0","MEAN_ELEMENT_THEORY":"SGP4","SEMIMAJOR_AXIS":"6911.053","CENTER_NAME":"EARTH","MEAN_ANOMALY":"119.8789","DECAY_DATE":null,"PERIOD":"95.296","SITE":"AFWTR","TLE_LINE1":"1 53510U 22099AX  22265.91667824 -.01261683  00000-0 -82593-1 0  9993","APOAPSIS":"534.380","REF_FRAME":"TEME","OBJECT_ID":"2022-099AX","MEAN_MOTION_DOT":"-0.01261683","RA_OF_ASC_NODE":"25.7901","FILE":"3580594","ECCENTRICITY":"0.00021150","NORAD_CAT_ID":"53510","EPOCH":"2022-09-22T22:00:00.999936","GP_ID":"213263154","BSTAR":"-0.08259300000000","COUNTRY_CODE":"US","PERIAPSIS":"531.457","ARG_OF_PERICENTER":"66.9097"},{"FILE":"3580594","ECCENTRICITY":"0.00015420","NORAD_CAT_ID":"53527","EPOCH":"2022-09-22T22:00:00.999936","GP_ID":"213263156","BSTAR":"-0.03782900000000","COUNTRY_CODE":"US","PERIAPSIS":"464.669","ARG_OF_PERICENTER":"46.1864","CENTER_NAME":"EARTH","MEAN_ANOMALY":"230.8479","DECAY_DATE":null,"PERIOD":"93.910","SITE":"AFETR","TLE_LINE1":"1 53527U 22101A   22265.91667824 -.01129866  00000-0 -37829-1 0  9993","APOAPSIS":"466.780","REF_FRAME":"TEME","OBJECT_ID":"2022-101A","MEAN_MOTION_DOT":"-0.01129866","RA_OF_ASC_NODE":"348.3941","RCS_SIZE":"LARGE","CLASSIFICATION_TYPE":"U","LAUNCH_DATE":"2022-08-19","EPHEMERIS_TYPE":"0","MEAN_ELEMENT_THEORY":"SGP4","SEMIMAJOR_AXIS":"6843.860","ELEMENT_SET_NO":"999","OBJECT_TYPE":"PAYLOAD","INCLINATION":"53.2170","REV_AT_EPOCH":"130","TLE_LINE2":"2 53527  53.2170 348.3941 0001542  46.1864 230.8479 15.33384634  1302","MEAN_MOTION_DDOT":"0.0000000000000","OBJECT_NAME":"STARLINK-4511","MEAN_MOTION":"15.33384634","TIME_SYSTEM":"UTC"},{"EPHEMERIS_TYPE":"0","MEAN_ELEMENT_THEORY":"SGP4","SEMIMAJOR_AXIS":"6844.779","RCS_SIZE":"LARGE","CLASSIFICATION_TYPE":"U","LAUNCH_DATE":"2022-08-19","MEAN_MOTION":"15.33075921","TIME_SYSTEM":"UTC","TLE_LINE2":"2 53528  53.2170 348.3859 0001592  44.3077 224.1045 15.33075921  1303","OBJECT_NAME":"STARLINK-4503","MEAN_MOTION_DDOT":"0.0000000000000","ELEMENT_SET_NO":"999","OBJECT_TYPE":"PAYLOAD","REV_AT_EPOCH":"130","INCLINATION":"53.2170","COUNTRY_CODE":"US","PERIAPSIS":"465.554","ARG_OF_PERICENTER":"44.3077","BSTAR":"-0.03837900000000","GP_ID":"213262381","EPOCH":"2022-09-22T22:00:00.999936","FILE":"3580594","ECCENTRICITY":"0.00015920","NORAD_CAT_ID":"53528","MEAN_MOTION_DOT":"-0.01134666","OBJECT_ID":"2022-101B","RA_OF_ASC_NODE":"348.3859","APOAPSIS":"467.733","REF_FRAME":"TEME","SITE":"AFETR","TLE_LINE1":"1 53528U 22101B   22265.91667824 -.01134666  00000-0 -38379-1 0  9999","MEAN_ANOMALY":"224.1045","CENTER_NAME":"EARTH","DECAY_DATE":null,"PERIOD":"93.929"},{"BSTAR":"-0.03922900000000","ARG_OF_PERICENTER":"42.7735","COUNTRY_CODE":"US","PERIAPSIS":"463.558","ECCENTRICITY":"0.00016500","NORAD_CAT_ID":"53529","FILE":"3580594","GP_ID":"213263313","EPOCH":"2022-09-22T22:00:00.999936","APOAPSIS":"465.816","REF_FRAME":"TEME","RA_OF_ASC_NODE":"348.4043","MEAN_MOTION_DOT":"-0.01179887","OBJECT_ID":"2022-101C","CENTER_NAME":"EARTH","MEAN_ANOMALY":"242.7169","PERIOD":"93.889","DECAY_DATE":null,"TLE_LINE1":"1 53529U 22101C   22265.91667824 -.01179887  00000-0 -39229-1 0  9999","SITE":"AFETR","MEAN_ELEMENT_THEORY":"SGP4","SEMIMAJOR_AXIS":"6842.822","EPHEMERIS_TYPE":"0","CLASSIFICATION_TYPE":"U","RCS_SIZE":"LARGE","LAUNCH_DATE":"2022-08-19","MEAN_MOTION":"15.33733393","TIME_SYSTEM":"UTC","INCLINATION":"53.2166","REV_AT_EPOCH":"130","ELEMENT_SET_NO":"999","OBJECT_TYPE":"PAYLOAD","MEAN_MOTION_DDOT":"0.0000000000000","TLE_LINE2":"2 53529  53.2166 348.4043 0001650  42.7735 242.7169 15.33733393  1300","OBJECT_NAME":"STARLINK-4478"},{"TLE_LINE2":"2 53530  53.2168 348.4200 0001457  46.9559 253.0811 15.34248200  1302","OBJECT_NAME":"STARLINK-4482","MEAN_MOTION_DDOT":"0.0000000000000","REV_AT_EPOCH":"130","INCLINATION":"53.2168","ELEMENT_SET_NO":"999","OBJECT_TYPE":"PAYLOAD","MEAN_MOTION":"15.34248200","TIME_SYSTEM":"UTC","RCS_SIZE":"MEDIUM","CLASSIFICATION_TYPE":"U","LAUNCH_DATE":"2022-08-19","MEAN_ELEMENT_THEORY":"SGP4","SEMIMAJOR_AXIS":"6841.291","EPHEMERIS_TYPE":"0","TLE_LINE1":"1 53530U 22101D   22265.91667824 -.01146686  00000-0 -37402-1 0  9993","SITE":"AFETR","CENTER_NAME":"EARTH","MEAN_ANOMALY":"253.0811","DECAY_DATE":null,"PERIOD":"93.857","RA_OF_ASC_NODE":"348.4200","MEAN_MOTION_DOT":"-0.01146686","OBJECT_ID":"2022-101D","APOAPSIS":"464.153","REF_FRAME":"TEME","EPOCH":"2022-09-22T22:00:00.999936","GP_ID":"213262224","ECCENTRICITY":"0.00014570","NORAD_CAT_ID":"53530","FILE":"3580594","ARG_OF_PERICENTER":"46.9559","COUNTRY_CODE":"US","PERIAPSIS":"462.160","BSTAR":"-0.03740200000000"},{"EPHEMERIS_TYPE":"0","SEMIMAJOR_AXIS":"6841.974","MEAN_ELEMENT_THEORY":"SGP4","LAUNCH_DATE":"2022-08-19","CLASSIFICATION_TYPE":"U","RCS_SIZE":"LARGE","TIME_SYSTEM":"UTC","MEAN_MOTION":"15.34018521","OBJECT_TYPE":"PAYLOAD","ELEMENT_SET_NO":"999","INCLINATION":"53.2168","REV_AT_EPOCH":"130","OBJECT_NAME":"STARLINK-4487","TLE_LINE2":"2 53531  53.2168 348.4133 0001620  43.9547 249.8778 15.34018521  1300","MEAN_MOTION_DDOT":"0.0000000000000","BSTAR":"-0.03754700000000","PERIAPSIS":"462.731","COUNTRY_CODE":"US","ARG_OF_PERICENTER":"43.9547","FILE":"3580594","NORAD_CAT_ID":"53531","ECCENTRICITY":"0.00016200","GP_ID":"213262954","EPOCH":"2022-09-22T22:00:00.999936","REF_FRAME":"TEME","APOAPSIS":"464.948","OBJECT_ID":"2022-101E","MEAN_MOTION_DOT":"-0.01143096","RA_OF_ASC_NODE":"348.4133","DECAY_DATE":null,"PERIOD":"93.871","MEAN_ANOMALY":"249.8778","CENTER_NAME":"EARTH","SITE":"AFETR","TLE_LINE1":"1 53531U 22101E   22265.91667824 -.01143096  00000-0 -37547-1 0  9996"}];
